[Satellite]
VERSION=1.1
NAME=FICIONE 
NICKNAME=ficciONE---AFRICAN_SPACE_RESEARCH_MAGAZINE
TLE1=1 24653U 96063B   15053.51319281 -.00000245  00000-0  00000+0 0  9999
TLE2=2 24653   6.0948  56.5974 0005064 174.9887 253.3352  1.00270715 66956
